NORAD_CAT_ID,OBJECT_NAME,OBJECT_TYPE,EPOCH,MEAN_MOTION,ECCENTRICITY,INCLINATION,RA_OF_ASC_NODE,ARG_OF_PERICENTER,MEAN_ANOMALY,BSTAR,MEAN_MOTION_DOT,MEAN_MOTION_DDOT,TLE_LINE0,TLE_LINE1,TLE_LINE2,SEMIMAJOR_AXIS,PERIOD,APOGEE,PERIGEE,DECAYED
52878.0,STARLINK-4171,PAYLOAD,2024-01-08 05:53:42,15.08855082,0.0001362,53.2183,327.0526,97.3095,262.8052,0.00030296,4.539e-05,0.0,0 STARLINK-4171,1 52878U 22062BA  24008.24563099  .00004539  00000-0  30296-3 0  9998,2 52878  53.2183 327.0526 0001362  97.3095 262.8052 15.08855082 86588,6917.834,95.437,540.641,538.757,0.0
52878.0,STARLINK-4171,PAYLOAD,2024-01-09 04:09:08,15.08834243,0.0001368,53.2185,322.8896,97.4893,262.6255,5.232e-05,5.45e-06,0.0,0 STARLINK-4171,1 52878U 22062BA  24009.17301510  .00000545  00000-0  52320-4 0  9995,2 52878  53.2185 322.8896 0001368  97.4893 262.6255 15.08834243 87216,6917.898,95.438,540.709,538.817,0.0
52878.0,STARLINK-4171,PAYLOAD,2024-01-09 05:44:31,15.08834793,0.0001373,53.2185,322.5921,94.4372,265.6777,5.7953e-05,6.34e-06,0.0,0 STARLINK-4171,1 52878U 22062BA  24009.23925517  .00000634  00000-0  57953-4 0  9997,2 52878  53.2185 322.5921 0001373  94.4372 265.6777 15.08834793 86735,6917.896,95.438,540.711,538.811,0.0
52878.0,STARLINK-4171,PAYLOAD,2024-01-10 03:59:54,15.088495,0.0001436,53.2175,318.4301,87.1707,272.9449,3.798e-05,3.17e-06,0.0,0 STARLINK-4171,1 52878U 22062BA  24010.16660582  .00000317  00000-0  37980-4 0  9995,2 52878  53.2175 318.4301 0001436  87.1707 272.9449 15.08849500 87360,6917.851,95.437,540.71,538.723,0.0
52878.0,STARLINK-4171,PAYLOAD,2024-01-10 19:53:46,15.08837945,0.0001547,53.2167,315.4612,77.0683,283.0482,0.00014823,2.072e-05,0.0,0 STARLINK-4171,1 52878U 22062BA  24010.82901286  .00002072  00000-0  14823-3 0  9997,2 52878  53.2167 315.4612 0001547  77.0683 283.0482 15.08837945 87468,6917.887,95.438,540.822,538.681,0.0
52878.0,STARLINK-4171,PAYLOAD,2024-01-11 05:26:05,15.08847759,0.0001475,53.2182,313.6718,87.4236,272.6924,0.000268,3.981e-05,0.0,0 STARLINK-4171,1 52878U 22062BA  24011.22644959  .00003981  00000-0  26800-3 0  9991,2 52878  53.2182 313.6718 0001475  87.4236 272.6924 15.08847759 87033,6917.857,95.437,540.742,538.701,0.0
52878.0,STARLINK-4171,PAYLOAD,2024-01-11 19:44:33,15.08840078,0.0001459,53.2183,310.9937,98.0,262.1158,-4.2808e-05,-9.69e-06,0.0,0 STARLINK-4171,1 52878U 22062BA  24011.82261436 -.00000969  00000-0 -42808-4 0  9994,2 52878  53.2183 310.9937 0001459  98.0000 262.1158 15.08840078 87126,6917.88,95.438,540.754,538.736,0.0
52878.0,STARLINK-4171,PAYLOAD,2024-01-12 02:06:06,15.08847679,0.0002136,53.2176,309.8134,55.4596,304.6598,0.00011301,1.511e-05,0.0,0 STARLINK-4171,1 52878U 22062BA  24012.08757332  .00001511  00000-0  11301-3 0  9993,2 52878  53.2176 309.8134 0002136  55.4596 304.6598 15.08847679 87656,6917.857,95.437,541.2,538.244,0.0
52878.0,STARLINK-4171,PAYLOAD,2024-01-12 05:16:51,15.08861894,0.000145,53.2185,309.2095,92.6387,267.4771,0.00029689,4.443e-05,0.0,0 STARLINK-4171,1 52878U 22062BA  24012.22004281  .00004443  00000-0  29689-3 0  9992,2 52878  53.2185 309.2095 0001450  92.6387 267.4771 15.08861894 87671,6917.813,95.436,540.682,538.675,0.0
52878.0,STARLINK-4171,PAYLOAD,2024-01-12 22:46:07,15.08840577,0.0001245,53.2185,305.9393,96.1224,263.991,-2.7875e-05,-7.31e-06,0.0,0 STARLINK-4171,1 52878U 22062BA  24012.94869261 -.00000731  00000-0 -27875-4 0  9992,2 52878  53.2185 305.9393 0001245  96.1224 263.9910 15.08840577 87295,6917.879,95.438,540.605,538.882,0.0
52878.0,STARLINK-4171,PAYLOAD,2024-01-13 01:56:53,15.08844095,0.0001484,53.2181,305.3439,107.4166,252.6988,2.9286e-05,1.78e-06,0.0,0 STARLINK-4171,1 52878U 22062BA  24013.08117047  .00000178  00000-0  29286-4 0  9997,2 52878  53.2181 305.3439 0001484 107.4166 252.6988 15.08844095 87808,6917.868,95.437,540.759,538.706,0.0
52878.0,STARLINK-4171,PAYLOAD,2024-01-14 01:47:40,15.08839281,0.000149,53.2184,300.8831,105.6929,254.4228,-0.00010107,-1.896e-05,0.0,0 STARLINK-4171,1 52878U 22062BA  24014.07477549 -.00001896  00000-0 -10107-3 0  9994,2 52878  53.2184 300.8831 0001490 105.6929 254.4228 15.08839281 87955,6917.883,95.438,540.778,538.717,0.0
52878.0,STARLINK-4171,PAYLOAD,2024-01-14 22:27:41,15.08836598,0.0001859,53.2181,297.0259,122.141,237.9762,0.00039179,5.952e-05,0.0,0 STARLINK-4171,1 52878U 22062BA  24014.93590150  .00005952  00000-0  39179-3 0  9998,2 52878  53.2181 297.0259 0001859 122.1410 237.9762 15.08836598 87598,6917.891,95.438,541.042,538.47,0.0
52878.0,STARLINK-4171,PAYLOAD,2024-01-15 01:38:27,15.08851608,0.0001504,53.2178,296.4307,104.0729,256.043,0.00028318,4.223e-05,0.0,0 STARLINK-4171,1 52878U 22062BA  24015.06837511  .00004223  00000-0  28318-3 0  9991,2 52878  53.2178 296.4307 0001504 104.0729 256.0430 15.08851608 88101,6917.845,95.437,540.75,538.669,0.0
52878.0,STARLINK-4171,PAYLOAD,2024-01-16 03:04:38,15.08847832,0.0001548,53.2175,291.6721,108.9583,251.1577,0.00023896,3.518e-05,0.0,0 STARLINK-4171,1 52878U 22062BA  24016.12821855  .00003518  00000-0  23896-3 0  9995,2 52878  53.2175 291.6721 0001548 108.9583 251.1577 15.08847832 88263,6917.856,95.437,540.792,538.651,0.0
52878.0,STARLINK-4171,PAYLOAD,2024-01-16 22:09:16,15.08836265,0.0001894,53.2172,288.101,98.1699,261.9508,6.2066e-06,-1.89e-06,0.0,0 STARLINK-4171,1 52878U 22062BA  24016.92310210 -.00000189  00000-0  62066-5 0  9997,2 52878  53.2172 288.1010 0001894  98.1699 261.9508 15.08836265 87893,6917.892,95.438,541.067,538.447,0.0
52878.0,STARLINK-4171,PAYLOAD,2024-01-17 01:20:02,15.08841386,0.0001492,53.2168,287.5048,104.1968,255.919,7.2454e-05,8.65e-06,0.0,0 STARLINK-4171,1 52878U 22062BA  24017.05558012  .00000865  00000-0  72454-4 0  9997,2 52878  53.2168 287.5048 0001492 104.1968 255.9190 15.08841386 88401,6917.876,95.437,540.773,538.709,0.0
52878.0,STARLINK-4171,PAYLOAD,2024-01-17 22:00:03,15.08837659,0.0001503,53.2165,283.6417,104.9785,255.1373,0.000104,1.367e-05,0.0,0 STARLINK-4171,1 52878U 22062BA  24017.91670634  .00001367  00000-0  10400-3 0  9997,2 52878  53.2165 283.6417 0001503 104.9785 255.1373 15.08837659 88046,6917.888,95.438,540.792,538.713,0.0
52878.0,STARLINK-4171,PAYLOAD,2024-01-18 02:46:12,15.08841881,0.0001519,53.2167,282.7488,85.8047,274.3119,0.00017156,2.444e-05,0.0,0 STARLINK-4171,1 52878U 22062BA  24018.11542667  .00002444  00000-0  17156-3 0  9996,2 52878  53.2167 282.7488 0001519  85.8047 274.3119 15.08841881 88561,6917.875,95.437,540.79,538.689,0.0
52878.0,STARLINK-4171,PAYLOAD,2024-01-18 21:50:50,15.08839892,0.0001305,53.2153,279.1788,97.9823,262.1317,0.00024064,3.544e-05,0.0,0 STARLINK-4171,1 52878U 22062BA  24018.91030840  .00003544  00000-0  24064-3 0  9997,2 52878  53.2153 279.1788 0001305  97.9823 262.1317 15.08839892 88191,6917.881,95.438,540.649,538.843,0.0
52878.0,STARLINK-4171,PAYLOAD,2024-01-19 02:36:59,15.08851158,0.0001382,53.2155,278.2851,98.4261,261.6888,0.00036933,5.597e-05,0.0,0 STARLINK-4171,1 52878U 22062BA  24019.10902396  .00005597  00000-0  36933-3 0  9991,2 52878  53.2155 278.2851 0001382  98.4261 261.6888 15.08851158 88221,6917.846,95.437,540.667,538.755,0.0
52878.0,STARLINK-4171,PAYLOAD,2024-01-19 21:41:37,15.0884434,0.0001456,53.2159,274.7137,107.6626,252.4525,0.00011986,1.62e-05,0.0,0 STARLINK-4171,1 52878U 22062BA  24019.90390463  .00001620  00000-0  11986-3 0  9999,2 52878  53.2159 274.7137 0001456 107.6626 252.4525 15.08844340 88347,6917.867,95.437,540.739,538.725,0.0
52878.0,STARLINK-4171,PAYLOAD,2024-01-19 23:17:00,15.08844499,0.0001491,53.2162,274.4175,87.8222,272.2941,0.00012426,1.69e-05,0.0,0 STARLINK-4171,1 52878U 22062BA  24019.97014610  .00001690  00000-0  12426-3 0  9990,2 52878  53.2162 274.4175 0001491  87.8222 272.2941 15.08844499 88842,6917.867,95.437,540.763,538.7,0.0
52878.0,STARLINK-4171,PAYLOAD,2024-01-20 19:57:01,15.08840716,0.000158,53.2167,270.5531,94.8613,265.2559,-3.4888e-05,-8.43e-06,0.0,0 STARLINK-4171,1 52878U 22062BA  24020.83126836 -.00000843  00000-0 -34888-4 0  9999,2 52878  53.2167 270.5531 0001580  94.8613 265.2559 15.08840716 88970,6917.878,95.438,540.836,538.65,0.0
52878.0,STARLINK-4171,PAYLOAD,2024-01-20 23:07:48,15.08837746,0.0001445,53.2155,269.9588,90.8542,269.2616,-3.8847e-05,-9.06e-06,0.0,0 STARLINK-4171,1 52878U 22062BA  24020.96375047 -.00000906  00000-0 -38847-4 0  9992,2 52878  53.2155 269.9588 0001445  90.8542 269.2616 15.08837746 88504,6917.887,95.438,540.752,538.753,0.0
52878.0,STARLINK-4171,PAYLOAD,2024-01-21 02:18:34,15.08841348,0.0001393,53.216,269.3634,96.2276,263.8875,-2.4062e-05,-6.71e-06,0.0,0 STARLINK-4171,1 52878U 22062BA  24021.09623030 -.00000671  00000-0 -24062-4 0  9998,2 52878  53.2160 269.3634 0001393  96.2276 263.8875 15.08841348 88524,6917.876,95.437,540.705,538.778,0.0
52878.0,STARLINK-4171,PAYLOAD,2024-01-21 21:23:11,15.08848912,0.0001376,53.2173,265.7951,93.2725,266.8425,7.7561e-06,-1.64e-06,0.0,0 STARLINK-4171,1 52878U 22062BA  24021.89110522 -.00000164  00000-0  77561-5 0  9992,2 52878  53.2173 265.7951 0001376  93.2725 266.8425 15.08848912 88648,6917.853,95.437,540.67,538.766,0.0
52878.0,STARLINK-4171,PAYLOAD,2024-01-22 19:38:36,15.08836783,0.0001418,53.2181,261.632,104.8591,255.2558,7.9484e-05,9.77e-06,0.0,0 STARLINK-4171,1 52878U 22062BA  24022.81847253  .00000977  00000-0  79484-4 0  9999,2 52878  53.2181 261.6320 0001418 104.8591 255.2558 15.08836783 89271,6917.89,95.438,540.736,538.774,0.0
52878.0,STARLINK-4171,PAYLOAD,2024-01-22 21:13:59,15.08836158,0.0001396,53.2179,261.3346,103.5004,256.6144,6.8669e-05,8.05e-06,0.0,0 STARLINK-4171,1 52878U 22062BA  24022.88471263  .00000805  00000-0  68669-4 0  9993,2 52878  53.2179 261.3346 0001396 103.5004 256.6144 15.08836158 88791,6917.892,95.438,540.723,538.791,0.0
52878.0,STARLINK-4171,PAYLOAD,2024-01-23 22:40:08,15.08850435,0.0001427,53.2169,256.5801,115.5487,244.5653,5.5964e-05,6.03e-06,0.0,0 STARLINK-4171,1 52878U 22062BA  24023.94454378  .00000603  00000-0  55964-4 0  9999,2 52878  53.2169 256.5801 0001427 115.5487 244.5653 15.08850435 88958,6917.848,95.437,540.701,538.726,0.0
